[{"OBJECT_NAME":"YAOGAN-36 04A","OBJECT_ID":"2022-171A","EPOCH":"2026-03-09T13:33:55.536768","MEAN_MOTION":15.19645021,"ECCENTRICITY":0.0007143,"INCLINATION":34.9894,"RA_OF_ASC_NODE":125.487,"ARG_OF_PERICENTER":123.655,"MEAN_ANOMALY":236.4846,"EPHEMERIS_TYPE":0,"CLASSIFICATION_TYPE":"U","NORAD_CAT_ID":54746,"ELEMENT_SET_NO":999,"REV_AT_EPOCH":17995,"BSTAR":0.00040159,"MEAN_MOTION_DOT":8.745e-5,"MEAN_MOTION_DDOT":0},{"OBJECT_NAME":"SCS-01 E","OBJECT_ID":"2025-100E","EPOCH":"2026-03-09T19:37:36.788160","MEAN_MOTION":15.18808974,"ECCENTRICITY":0.00041864,"INCLINATION":97.4267,"RA_OF_ASC_NODE":144.0575,"ARG_OF_PERICENTER":16.3517,"MEAN_ANOMALY":343.7852,"EPHEMERIS_TYPE":0,"CLASSIFICATION_TYPE":"U","NORAD_CAT_ID":63986,"ELEMENT_SET_NO":999,"REV_AT_EPOCH":4552,"BSTAR":0.00039415521,"MEAN_MOTION_DOT":8.14e-5,"MEAN_MOTION_DDOT":0}]
